NORAD_CAT_ID,OBJECT_NAME,OBJECT_TYPE,EPOCH,MEAN_MOTION,ECCENTRICITY,INCLINATION,RA_OF_ASC_NODE,ARG_OF_PERICENTER,MEAN_ANOMALY,BSTAR,MEAN_MOTION_DOT,MEAN_MOTION_DDOT,TLE_LINE0,TLE_LINE1,TLE_LINE2,SEMIMAJOR_AXIS,PERIOD,APOGEE,PERIGEE,DECAYED
52874.0,STARLINK-4210,PAYLOAD,2023-03-31 14:49:25,15.08852326,0.0001464,53.2174,155.8135,112.4163,247.6985,0.0001328,1.827e-05,0.0,0 STARLINK-4210,1 52874U 22062AW  23090.61765095  .00001827  00000-0  13280-3 0  9996,2 52874  53.2174 155.8135 0001464 112.4163 247.6985 15.08852326 44404,6917.843,95.437,540.72,538.695,0.0
52874.0,STARLINK-4210,PAYLOAD,2023-04-01 05:07:55,15.08827326,0.000199,53.2172,153.1398,88.1872,271.9348,9.9914e-06,-1.29e-06,0.0,0 STARLINK-4210,1 52874U 22062AW  23091.21383535 -.00000129  00000-0  99914-5 0  9993,2 52874  53.2172 153.1398 0001990  88.1872 271.9348 15.08827326 44498,6917.919,95.438,541.161,538.407,0.0
52874.0,STARLINK-4210,PAYLOAD,2023-04-01 11:29:28,15.08821296,0.0001393,53.2165,151.9496,86.269,273.8461,-8.8559e-05,-1.696e-05,0.0,0 STARLINK-4210,1 52874U 22062AW  23091.47880480 -.00001696  00000-0 -88559-4 0  9995,2 52874  53.2165 151.9496 0001393  86.2690 273.8461 15.08821296 44531,6917.938,95.439,540.766,538.839,0.0
52874.0,STARLINK-4210,PAYLOAD,2023-04-01 21:01:47,15.08830777,0.0001451,53.2162,150.1653,84.8419,275.2738,-1.1291e-05,-4.68e-06,0.0,0 STARLINK-4210,1 52874U 22062AW  23091.87623927 -.00000468  00000-0 -11291-4 0  9995,2 52874  53.2162 150.1653 0001451  84.8419 275.2738 15.08830777 44102,6917.909,95.438,540.777,538.77,0.0
52874.0,STARLINK-4210,PAYLOAD,2023-04-02 04:58:42,15.08837688,0.0001273,53.2164,148.6783,85.1092,275.0045,5.1999e-05,5.4e-06,0.0,0 STARLINK-4210,1 52874U 22062AW  23092.20743330  .00000540  00000-0  51999-4 0  9992,2 52874  53.2164 148.6783 0001273  85.1092 275.0045 15.08837688 44649,6917.887,95.438,540.633,538.872,0.0
52874.0,STARLINK-4210,PAYLOAD,2023-04-02 11:20:14,15.08847759,0.000142,53.2171,147.4884,88.5499,271.5656,3.7821e-05,3.14e-06,0.0,0 STARLINK-4210,1 52874U 22062AW  23092.47238779  .00000314  00000-0  37821-4 0  9994,2 52874  53.2171 147.4884 0001420  88.5499 271.5656 15.08847759 44681,6917.857,95.437,540.704,538.739,0.0
52874.0,STARLINK-4210,PAYLOAD,2023-04-02 20:52:32,15.0885231,0.0001359,53.2168,145.7045,82.8005,277.3141,-3.226e-05,-8.02e-06,0.0,0 STARLINK-4210,1 52874U 22062AW  23092.86982537 -.00000802  00000-0 -32260-4 0  9991,2 52874  53.2168 145.7045 0001359  82.8005 277.3141 15.08852310 44253,6917.843,95.437,540.648,538.768,0.0
52874.0,STARLINK-4210,PAYLOAD,2023-04-03 03:14:05,15.08838472,0.0001799,53.2169,144.517,76.9483,283.1709,0.00011651,1.567e-05,0.0,0 STARLINK-4210,1 52874U 22062AW  23093.13479100  .00001567  00000-0  11651-3 0  9996,2 52874  53.2169 144.5170 0001799  76.9483 283.1709 15.08838472 44788,6917.885,95.438,540.995,538.506,0.0
52874.0,STARLINK-4210,PAYLOAD,2023-04-03 09:35:36,15.08948675,0.000103,53.217,143.3268,70.0989,290.0114,-0.0013215,-0.0002132,0.0,0 STARLINK-4210,1 52874U 22062AW  23093.39972943 -.00021320  00000-0 -13215-2 0  9995,2 52874  53.2170 143.3268 0001030  70.0989 290.0114 15.08948675 44828,6917.548,95.431,540.126,538.701,0.0
52874.0,STARLINK-4210,PAYLOAD,2023-04-03 20:43:20,15.08843317,0.0001568,53.2172,141.246,73.693,286.4235,0.00012227,1.659e-05,0.0,0 STARLINK-4210,1 52874U 22062AW  23093.86342819  .00001659  00000-0  12227-3 0  9994,2 52874  53.2172 141.2460 0001568  73.6930 286.4235 15.08843317 44899,6917.87,95.437,540.82,538.651,0.0
52874.0,STARLINK-4210,PAYLOAD,2023-04-04 09:26:25,15.08849267,0.0001425,53.217,138.8662,88.5701,271.5455,2.0463e-05,3.8e-07,0.0,0 STARLINK-4210,1 52874U 22062AW  23094.39334512  .00000038  00000-0  20463-4 0  9996,2 52874  53.2170 138.8662 0001425  88.5701 271.5455 15.08849267 44480,6917.852,95.437,540.703,538.731,0.0
52874.0,STARLINK-4210,PAYLOAD,2023-04-05 06:06:26,15.08837818,0.0001593,53.2167,134.9994,90.4487,269.6688,-3.7923e-05,-8.91e-06,0.0,0 STARLINK-4210,1 52874U 22062AW  23095.25447195 -.00000891  00000-0 -37923-4 0  9992,2 52874  53.2167 134.9994 0001593  90.4487 269.6688 15.08837818 45105,6917.887,95.438,540.854,538.65,0.0
52874.0,STARLINK-4210,PAYLOAD,2023-04-05 09:17:12,15.08836753,0.0001408,53.2165,134.4036,97.2587,262.8565,-6.3168e-05,-1.293e-05,0.0,0 STARLINK-4210,1 52874U 22062AW  23095.38695288 -.00001293  00000-0 -63168-4 0  9991,2 52874  53.2165 134.4036 0001408  97.2587 262.8565 15.08836753 44639,6917.89,95.438,540.729,538.781,0.0
52874.0,STARLINK-4210,PAYLOAD,2023-04-06 07:32:36,15.08842365,0.0001399,53.2174,130.2404,103.1219,256.9929,1.6112e-06,-2.62e-06,0.0,0 STARLINK-4210,1 52874U 22062AW  23096.31430653 -.00000262  00000-0  16112-5 0  9990,2 52874  53.2174 130.2404 0001399 103.1219 256.9929 15.08842365 45264,6917.873,95.437,540.706,538.77,0.0
52874.0,STARLINK-4210,PAYLOAD,2023-04-06 12:18:45,15.08847664,0.0001337,53.2171,129.3484,95.3416,264.7729,-4.8476e-06,-3.65e-06,0.0,0 STARLINK-4210,1 52874U 22062AW  23096.51302325 -.00000365  00000-0 -48476-5 0  9999,2 52874  53.2171 129.3484 0001337  95.3416 264.7729 15.08847664 44802,6917.857,95.437,540.647,538.797,0.0
52874.0,STARLINK-4210,PAYLOAD,2023-04-06 18:40:18,15.08845366,0.0001204,53.2161,128.1575,96.2792,263.8337,-7.4928e-05,-1.48e-05,0.0,0 STARLINK-4210,1 52874U 22062AW  23096.77798612 -.00001480  00000-0 -74928-4 0  9994,2 52874  53.2161 128.1575 0001204  96.2792 263.8337 15.08845366 44845,6917.864,95.437,540.562,538.896,0.0
52874.0,STARLINK-4210,PAYLOAD,2023-04-07 05:48:00,15.08832075,0.0001254,53.2169,126.0774,91.5286,268.585,2.1956e-05,6.2e-07,0.0,0 STARLINK-4210,1 52874U 22062AW  23097.24167406  .00000062  00000-0  21956-4 0  9994,2 52874  53.2169 126.0774 0001254  91.5286 268.5850 15.08832075 45400,6917.905,95.438,540.637,538.902,0.0
52874.0,STARLINK-4210,PAYLOAD,2023-04-07 10:34:09,15.08835204,0.0001275,53.217,125.1856,90.3143,269.7996,4.5389e-05,4.34e-06,0.0,0 STARLINK-4210,1 52874U 22062AW  23097.44039204  .00000434  00000-0  45389-4 0  9999,2 52874  53.2170 125.1856 0001275  90.3143 269.7996 15.08835204 44944,6917.895,95.438,540.642,538.878,0.0
52874.0,STARLINK-4210,PAYLOAD,2023-04-08 10:24:57,15.08837676,0.0001316,53.2172,120.725,89.6442,270.4701,-8.0944e-06,-4.17e-06,0.0,0 STARLINK-4210,1 52874U 22062AW  23098.43399502 -.00000417  00000-0 -80944-5 0  9999,2 52874  53.2172 120.7250 0001316  89.6442 270.4701 15.08837676 45583,6917.887,95.438,540.663,538.842,0.0
52874.0,STARLINK-4210,PAYLOAD,2023-04-09 08:40:21,15.08836927,0.0001349,53.2182,116.5628,90.7346,269.3801,3.6742e-05,2.97e-06,0.0,0 STARLINK-4210,1 52874U 22062AW  23099.36135614  .00000297  00000-0  36742-4 0  9994,2 52874  53.2182 116.5628 0001349  90.7346 269.3801 15.08836927 45236,6917.89,95.438,540.688,538.822,0.0
52874.0,STARLINK-4210,PAYLOAD,2023-04-09 18:12:39,15.08839305,0.0001352,53.2184,114.7787,90.7541,269.3606,4.0644e-05,3.59e-06,0.0,0 STARLINK-4210,1 52874U 22062AW  23099.75879500  .00000359  00000-0  40644-4 0  9991,2 52874  53.2184 114.7787 0001352  90.7541 269.3606 15.08839305 45781,6917.883,95.438,540.683,538.812,0.0
52874.0,STARLINK-4210,PAYLOAD,2023-04-10 06:55:44,15.08840969,0.000129,53.218,112.3998,91.4352,268.6788,7.5601e-05,9.16e-06,0.0,0 STARLINK-4210,1 52874U 22062AW  23100.28871268  .00000916  00000-0  75601-4 0  9995,2 52874  53.2180 112.3998 0001290  91.4352 268.6788 15.08840969 45370,6917.877,95.437,540.635,538.85,0.0
52874.0,STARLINK-4210,PAYLOAD,2023-04-10 18:03:26,15.08840498,0.0001166,53.2167,110.3175,92.7017,267.4109,4.2306e-05,3.86e-06,0.0,0 STARLINK-4210,1 52874U 22062AW  23100.75239316  .00000386  00000-0  42306-4 0  9996,2 52874  53.2167 110.3175 0001166  92.7017 267.4109 15.08840498 45443,6917.879,95.438,540.55,538.937,0.0
52874.0,STARLINK-4210,PAYLOAD,2023-04-11 06:46:31,15.08838996,0.0001176,53.2168,107.9385,92.5767,267.536,3.9975e-05,3.48e-06,0.0,0 STARLINK-4210,1 52874U 22062AW  23101.28231408  .00000348  00000-0  39975-4 0  9995,2 52874  53.2168 107.9385 0001176  92.5767 267.5360 15.08838996 46014,6917.883,95.438,540.562,538.935,0.0
52874.0,STARLINK-4210,PAYLOAD,2023-04-11 09:57:17,15.0884396,0.0001255,53.2167,107.3432,93.0356,267.078,5.2305e-05,5.45e-06,0.0,0 STARLINK-4210,1 52874U 22062AW  23101.41479035  .00000545  00000-0  52305-4 0  9991,2 52874  53.2167 107.3432 0001255  93.0356 267.0780 15.08843960 45543,6917.868,95.437,540.601,538.865,0.0
52874.0,STARLINK-4210,PAYLOAD,2023-04-11 17:54:14,15.08837187,0.0001153,53.2169,105.8566,83.0385,277.0738,-1.5824e-05,-5.4e-06,0.0,0 STARLINK-4210,1 52874U 22062AW  23101.74599640 -.00000540  00000-0 -15824-4 0  9994,2 52874  53.2169 105.8566 0001153  83.0385 277.0738 15.08837187 45597,6917.889,95.438,540.552,538.956,0.0
52874.0,STARLINK-4210,PAYLOAD,2023-04-12 05:01:56,15.08834607,0.0001292,53.2166,103.7753,88.0311,272.0829,-4.1901e-05,-9.55e-06,0.0,0 STARLINK-4210,1 52874U 22062AW  23102.20968063 -.00000955  00000-0 -41901-4 0  9990,2 52874  53.2166 103.7753 0001292  88.0311 272.0829 15.08834607 46150,6917.897,95.438,540.656,538.868,0.0
52874.0,STARLINK-4210,PAYLOAD,2023-04-12 11:23:28,15.088376,0.0001291,53.2168,102.5861,85.4743,274.6397,-2.4757e-05,-6.82e-06,0.0,0 STARLINK-4210,1 52874U 22062AW  23102.47463871 -.00000682  00000-0 -24757-4 0  9993,2 52874  53.2168 102.5861 0001291  85.4743 274.6397 15.08837600 45702,6917.888,95.438,540.646,538.86,0.0
52874.0,STARLINK-4210,PAYLOAD,2023-04-13 09:38:52,15.08849411,0.0001301,53.2169,98.4225,83.6484,276.4657,9.6948e-08,-2.86e-06,0.0,0 STARLINK-4210,1 52874U 22062AW  23103.40199079 -.00000286  00000-0  96948-7 0  9996,2 52874  53.2169  98.4225 0001301  83.6484 276.4657 15.08849411 45841,6917.852,95.437,540.617,538.817,0.0
52874.0,STARLINK-4210,PAYLOAD,2023-04-14 06:18:53,15.08837043,0.0001227,53.2167,94.5568,87.3244,272.7889,7.9161e-05,9.72e-06,0.0,0 STARLINK-4210,1 52874U 22062AW  23104.26311791  .00000972  00000-0  79161-4 0  9994,2 52874  53.2167  94.5568 0001227  87.3244 272.7889 15.08837043 45976,6917.889,95.438,540.603,538.906,0.0
